STARLINK-30830          
1 58194U 23167V   26067.27905089 -.00000878  00000+0 -23033-4 0  9996
2 58194  43.0047 150.9804 0002253 291.0825  68.9786 15.26745059130779
FLOCK 4G-21             
1 62651U 25009AU  26068.19487675  .00013648  00000+0  49619-3 0  9998
2 62651  97.4032 151.1274 0000465 329.5782  30.5431 15.28381075 63677
